[{"OBJECT_NAME":"KUIPER-00081","OBJECT_ID":"2025-171A","EPOCH":"2026-03-09T12:27:51.030432","MEAN_MOTION":14.79979194,"ECCENTRICITY":5.129e-5,"INCLINATION":51.8988,"RA_OF_ASC_NODE":148.8267,"ARG_OF_PERICENTER":50.4141,"MEAN_ANOMALY":309.6867,"EPHEMERIS_TYPE":0,"CLASSIFICATION_TYPE":"U","NORAD_CAT_ID":65132,"ELEMENT_SET_NO":999,"REV_AT_EPOCH":3301,"BSTAR":0.00075497205,"MEAN_MOTION_DOT":5.545e-5,"MEAN_MOTION_DDOT":0},{"OBJECT_NAME":"NOAA 16 DEB","OBJECT_ID":"2000-055BD","EPOCH":"2026-03-09T18:39:37.734048","MEAN_MOTION":14.80724367,"ECCENTRICITY":0.00275677,"INCLINATION":98.997,"RA_OF_ASC_NODE":4.8082,"ARG_OF_PERICENTER":229.8515,"MEAN_ANOMALY":130.0279,"EPHEMERIS_TYPE":0,"CLASSIFICATION_TYPE":"U","NORAD_CAT_ID":41094,"ELEMENT_SET_NO":999,"REV_AT_EPOCH":53865,"BSTAR":0.004036688,"MEAN_MOTION_DOT":0.00031339,"MEAN_MOTION_DDOT":0}]
